#dP2023 12 14  0  0  0.00000000      97 __u+U IGS20 FIT  IAC
## 2292 345600.00000000   900.00000000 60292 0.0000000000000
+  118   C06C07C08C09C10C11C12C13C14C16C19C20C21C22C23C24C25
+        C26C27C28C29C30C32C33C34C35C36C37C38C39C40C41C42C43
+        C44C45C46E02E03E04E05E07E08E09E10E11E12E13E15E18E19
+        E21E24E25E26E27E30E31E33E34E36G01G02G03G04G05G06G07
+        G08G09G10G11G12G13G14G15G16G17G18G19G20G21G22G23G24
+        G25G26G27G28G29G30G31G32J02J03J04R01R02R03R04R05R07
+        R08R09R11R12R13R14R15R16R17R18R19R20R21R22R24R26  0
++         7  9  7  7  9  7  7  7  6  7  6  6  6  6  5  6  5
++         5  6  6  5  6  6  5  6  6  6  6  6  6  6  5  6  6
++         6  6  6  4  4  4  4  4  4  4  4  4  4  4  4  5  4
++         5  4  4  4  4  4  4  4  4  4  4  3  5  3  4  3  3
++         3  4  3  3  3  3  3  3  4  3  3  3  4  3  3  3  3
++         3  5  4  3  3  3  3  3  9  9  9  7  7  7  7  7  6
++         6  7  6  7  8  7  7  7  7  7  8  8  7  6  7  7  0
%c M  cc GPS ccc cccc cccc cccc cccc ccccc ccccc ccccc ccccc
%c cc cc ccc ccc cccc cccc cccc cccc ccccc ccccc ccccc ccccc
%f  1.2500000  1.025000000  0.00000000000  0.000000000000000
%f  0.0000000  0.000000000  0.00000000000  0.000000000000000
%i    0    0    0    0      0      0      0      0         0
%i    0    0    0    0      0      0      0      0         0
/* INFORMATION & ANALYSIS CENTER (IAC)            FINAL DATA
/* S/V CLOCKS ARE ALIGNED TO GNSS TIME                      
/* G:C1WC2W R:C1PC2P E:C1XC5X C:C2IC6I J:C1CC2S             
/* PCV:IGS20_2290 OL/AL:FES2004  NONE     YN ORB:CoN CLK:CoN
*  2023 12 14 20  0  0.00000000
PC06 -19437.953477  30596.352176 -21741.192561    208.312626
PC07  -4898.322991  39473.460593 -13644.762234   -474.843287
PC08  -1567.528381  21481.652438  36279.666473    180.469643
PC09  -9611.462404  29053.254661 -28840.646041   -217.709570
PC10   1575.572960  41205.996260  -6897.285244    -53.515266
PC11   7873.198478  13943.726949  22929.456932    306.438535
PC12  -9119.495718  23086.647031  12794.150157    825.994538
PC13   4290.732837  24537.682598  34246.451748    395.670129
PC14  13624.891986  23199.130564  -7303.796655   -247.915102
PC16 -21390.796103  30201.834471 -20268.246279   -226.313679
PC19 -16835.600039 -16078.920277  15419.780811   -952.367382
PC20  -9261.095163 -26336.592585   -222.176887     28.831858
PC21  -4690.251280  21485.655797  17180.284491   -967.563039
PC22 -15166.189310   3987.570761  23077.959613   -186.629294
PC23  26562.828233  -1379.905940   8455.893144   -803.985073
PC24   7856.047417  16778.320392 -20898.752396    692.545262
PC25  24834.209271   9834.881750  -8135.988784    278.133150
PC26 -12111.721835  13544.608395 -21191.485065   -220.222703
PC27  15326.329321 -22826.707279  -4758.907799    242.220634
PC28  21821.551797 -13431.173366  11065.431151    183.261613
PC29 -15646.983844  -5608.652521 -22416.315142    214.549788
PC30     48.032188 -20884.481835 -18501.441314    -10.398368
PC32   4580.261684 -21466.921503 -17223.526565   -542.756629
PC33  16921.687027  16058.194764 -15308.360070   -941.885562
PC34   1281.926153  20138.015315  19277.230280    324.931200
PC35 -21340.115357  14266.055021 -10999.809535    480.688283
PC36 -24140.345087 -10838.787119   8851.841182    -93.056417
PC37  13127.833223 -12966.677178  20945.881641   -924.604029
PC38 -10705.329556  20110.418949  35521.758304    124.051682
PC39 -23714.360302  31148.178715 -15886.707440     -6.106718
PC40  -9759.443059  37133.769744 -17125.964185    -47.860005
PC41  15444.528278  -3192.404595 -22972.010152   -873.568676
PC42   8283.734216  26576.944337   1829.948066   -481.079202
PC43  15134.295398   6604.787950  22488.403187     52.306423
PC44 -14577.365860  23380.624321   4521.737808    322.859765
PC45 -26369.035323   1638.748062  -8950.229316    -54.922465
PC46  -8963.456628 -16587.768273  20546.478278   -107.518433
PE02   2350.713833 -19127.519836  22454.812445     86.628558
PE03   8426.562376 -28274.459943  -2437.108348    -80.119722
PE04   5242.741168  24727.864899 -15405.001306   -280.109806
PE05  17063.191875 -15367.990460 -18677.145141   4700.497834
PE07 -15654.180364  -7109.329978  24094.701368    -93.040184
PE08  -4762.023151 -25066.673721  15004.080713   -192.204210
PE09  15480.956676   7203.611995 -24182.038576   -262.981963
PE10  18321.600156   8895.145538  21483.289285   -586.361389
PE11  25835.568287   1954.100115  14302.699634   3264.979520
PE12   8867.754759  13938.363284  24563.934660   -818.886090
PE13 -25460.128242  -2367.703331 -14904.384856    -19.687441
PE15  -8305.204636 -14062.800081 -24673.886201    -74.711711
PE18  11759.639285  11731.215381  17448.067947     94.736096
PE19  -9968.709588  27473.629425   4719.394769  -1015.272248
PE21 -18259.370246   4380.281984 -22883.193878   -568.865932
PE24  24242.774785  14081.007785   9525.028844   -485.927535
PE25  18517.347127  -4006.037718  22747.688579     -1.971593
PE26 -27214.569437  10905.324339   4073.566760    309.692114
PE27 -24302.297848 -13615.946734  -9986.088149   -224.175954
PE30 -15641.338788 -23484.931407   8897.886467   -741.976095
PE31  15964.712672  23385.677800  -8641.836321    -11.726989
PE33 -14035.268106  17289.500462  19505.140288      4.193134
PE34  13437.060422 -17375.839236 -19843.976303    -83.362620
PE36  27458.465777 -10509.387080  -3400.315291   -157.706936
PG01  -1514.462876 -14790.249069 -22338.955839    163.979675
PG02   5672.752156 -16594.469707 -19379.114163   -515.535289
PG03  -8080.463464 -20908.103728 -14474.949698     54.705767
PG04     20.204162 -24801.610659   9325.953244    239.506329
PG05  -3530.759437  15810.757438  20853.544400   -154.127468
PG06 -25798.865936   6326.863985  -1633.880949    477.925797
PG07 -17975.969014  -8335.951730  18384.903006    -11.901196
PG08   4645.400280 -25906.208467   -821.036986   -156.991286
PG09  -9001.899406 -17584.966168  17639.633456     26.828302
PG10  21558.116417   7963.192045 -13403.573932    -65.312485
PG11 -21823.052030  11989.031204   9195.291747   -500.787184
PG12   5865.386800  21473.169121 -14826.724411   -457.438034
PG13 -13482.591957  21601.055781   6946.573543    605.639509
PG14 -21846.826740 -11018.295223 -10527.816341    270.862929
PG15  -1440.350681  26396.167508  -1022.896072    106.944656
PG16  10680.360157 -10547.109284  21579.150541   -404.132817
PG17 -14429.916895  -3301.113407 -21622.646761    721.987997
PG18  18960.531305   6918.850185  17373.651562   -506.256972
PG19 -16558.543855   5938.910259 -19980.364474    412.486375
PG20 -15126.310017   7538.426025  20501.770673    396.649310
PG21   8986.781102 -16815.256292 -17565.785361    141.535376
PG22 -19829.139674  -5300.857434 -16256.116464     66.057130
PG23  20814.601911  16522.874200  -2155.008534    116.118670
PG24  -4538.335343  17565.399360 -19669.421413   -393.339911
PG25  16514.811302  20342.168519  -5494.954057    481.476744
PG26      0.000000      0.000000      0.000000 999999.999999
PG27  12696.520897 -19905.458094  11467.817025    -82.965769
PG28  25622.283445  -5374.533561  -4483.035100    -70.153317
PG29   6573.002569  18745.991680  17535.665815   -609.762421
PG30 -24573.737874   -791.733321  10503.510270   -457.434910
PG31  24590.252091  -9753.832079   3973.284275   -226.594278
PG32  15513.935494  -1092.955034 -21317.822227   -596.288373
PJ02 -22437.264972  19129.604041 -25496.564217     -0.564333
PJ03 -28816.273426  30296.790768  11318.553737    -11.975688
PJ04 -25974.850654  27685.474077  24209.751342     74.210750
PR01   -684.453899  23199.157406  10576.980853     72.120548
PR02   6959.870211  23520.423393  -7096.525313    -22.344752
PR03  11381.659192  10171.509146 -20414.243231     90.915626
PR04   9165.900310  -8306.962696 -22278.332175    215.376645
PR05   2274.246223 -22333.214734 -12074.777506    123.793574
PR07 -11433.092695  -9147.202630  20908.626293     71.349006
PR08  -9176.654466   8661.035798  22231.590502    -73.695369
PR09 -14905.346978 -13420.789055  15823.367377    158.729781
PR11 -20501.750054    226.545420 -15178.497662   -221.317594
PR12  -3545.766434  10440.977505 -22982.442971     34.467419
PR13  12724.507780  13506.673284 -17524.397059    -42.313922
PR14  23990.078033   8643.724561    131.341584     25.753213
PR15  19661.300099  -1013.724386  16231.505133     83.950904
PR16   3745.939478 -10218.776487  23072.910538     21.546538
PR17  16179.472391  -1506.708313  19692.963018     43.510975
PR18  21021.659914 -12864.143301   6504.315610    116.869038
PR19  16704.947613 -17219.345711  -8665.783683   -258.304314
PR20   -724.107225 -11936.240147 -22509.032959   -105.149967
PR21 -16431.130571   1846.514159 -19405.015274    -60.998966
PR22 -21423.836499  12766.850928  -5356.350998     98.266857
PR24   2023.627902  11940.291747  22471.535754    -35.942495
PR26 -16379.448571    627.370543 -19526.335829      1.109866
EOF
